GSAT0101 (GALILEO-PFM)  
1 37846U 11060A   26132.06679816 -.00000059  00000+0  00000+0 0  9996
2 37846  57.0066 342.7409 0003801  36.9967 323.0721  1.70475700 90508
GSAT0102 (GALILEO-FM2)  
1 37847U 11060B   26132.28960389 -.00000059  00000+0  00000+0 0  9999
2 37847  57.0060 342.7355 0004102   9.0913 173.3074  1.70475944 90518
GSAT0103 (GALILEO-FM3)  
1 38857U 12055A   26132.69380508  .00000058  00000+0  00000+0 0  9998
2 38857  55.7853 102.5186 0005712 298.0143  61.9039  1.70473386 84404
GSAT0201 (GALILEO 5)    
1 40128U 14050A   26133.92183163 -.00000050  00000+0  00000+0 0  9997
2 40128  48.9132 274.8401 1669352 178.0546 182.6998  1.85519873 77681
GSAT0202 (GALILEO 6)    
1 40129U 14050B   26133.63850773 -.00000050  00000+0  00000+0 0  9994
2 40129  48.9313 273.9365 1670426 178.7733 181.7078  1.85520430 79841
GSAT0203 (GALILEO 7)    
1 40544U 15017A   26134.19105623 -.00000060  00000+0  00000+0 0  9999
2 40544  56.7976 342.5224 0002529 298.3932  61.6234  1.70475894 68624
GSAT0204 (GALILEO 8)    
1 40545U 15017B   26133.86018314 -.00000060  00000+0  00000+0 0  9993
2 40545  56.8041 342.5500 0001982 280.9930  79.0272  1.70475594 31669
GSAT0205 (GALILEO 9)    
1 40889U 15045A   26115.63255192 -.00000038  00000+0  00000+0 0  9992
2 40889  54.9613 223.1764 0005159 266.9978  92.9342  1.67410754 66085
GSAT0206 (GALILEO 10)   
1 40890U 15045B   26133.84883054  .00000012  00000+0  00000+0 0  9992
2 40890  54.9550 222.5527 0001645  21.0324 339.0175  1.70473937 66454
GSAT0209 (GALILEO 12)   
1 41174U 15079A   26134.01678126  .00000051  00000+0  00000+0 0  9990
2 41174  55.8082 102.1982 0005676 332.8024  27.1359  1.70473925 64191
GSAT0208 (GALILEO 11)   
1 41175U 15079B   26132.47731976  .00000058  00000+0  00000+0 0  9999
2 41175  55.8051 102.2375 0005004 333.6656  26.2856  1.70473864 64587
GSAT0211 (GALILEO 14)   
1 41549U 16030A   26134.36115200  .00000014  00000+0  00000+0 0  9990
2 41549  55.1049 222.6253 0002568 339.5667  20.4689  1.70474048 62092
GSAT0210 (GALILEO 13)   
1 41550U 16030B   26133.44525435  .00000011  00000+0  00000+0 0  9992
2 41550  55.1034 222.6485 0003179 230.8453 129.1673  1.70474089 62073
GSAT0207 (GALILEO 15)   
1 41859U 16069A   26133.13686640  .00000055  00000+0  00000+0 0  9996
2 41859  55.4775 102.0552 0005821 321.4493  38.4825  1.70473822 58804
GSAT0212 (GALILEO 16)   
1 41860U 16069B   26134.16349088  .00000049  00000+0  00000+0 0  9997
2 41860  55.4761 102.0219 0004753 345.7526  14.2010  1.70473991 59075
GSAT0213 (GALILEO 17)   
1 41861U 16069C   26133.35764116  .00000054  00000+0  00000+0 0  9997
2 41861  55.4778 102.0522 0005700 305.7481  54.1710  1.70474359 58922
GSAT0214 (GALILEO 18)   
1 41862U 16069D   26132.33062559  .00000058  00000+0  00000+0 0  9991
2 41862  55.4756 102.0732 0004781 311.3143  48.6217  1.70474167 59038
GSAT0215 (GALILEO 19)   
1 43055U 17079A   26133.40726626  .00000011  00000+0  00000+0 0  9999
2 43055  55.0834 222.4638 0002332 262.8128  97.2018  1.70474658 52398
GSAT0216 (GALILEO 20)   
1 43056U 17079B   26133.11185616  .00000010  00000+0  00000+0 0  9995
2 43056  55.0844 222.4721 0001853 283.0597  76.9595  1.70474837 52400
GSAT0217 (GALILEO 21)   
1 43057U 17079C   26130.98631227  .00000006  00000+0  00000+0 0  9997
2 43057  55.0824 222.5283 0002398 300.6268  59.3860  1.70474863 52352
GSAT0218 (GALILEO 22)   
1 43058U 17079D   26132.37953886  .00000008  00000+0  00000+0 0  9993
2 43058  55.0821 222.4876 0004926 272.6757  87.3056  1.70474709 52400
GSAT0221 (GALILEO 25)   
1 43564U 18060A   26134.04315617 -.00000059  00000+0  00000+0 0  9993
2 43564  57.1796 342.7026 0003326 317.1989  42.8181  1.70475744 48583
GSAT0222 (GALILEO 26)   
1 43565U 18060B   26134.26275871 -.00000059  00000+0  00000+0 0  9995
2 43565  57.1833 342.7002 0001936 276.5511  83.4695  1.70475458 48633
GSAT0219 (GALILEO 23)   
1 43566U 18060C   26132.72394273 -.00000058  00000+0  00000+0 0  9992
2 43566  57.1830 342.7433 0002967 333.6508  26.3774  1.70475738 48584
GSAT0220 (GALILEO 24)   
1 43567U 18060D   26133.53149004 -.00000058  00000+0  00000+0 0  9993
2 43567  57.1827 342.7223 0003105 325.7445  34.2788  1.70475539 48587
GSAT0223 (GALILEO 27)   
1 49809U 21116A   26133.08767361 -.00000058  00000+0  00000+0 0  9996
2 49809  57.1731 342.6239 0000612 234.7586 303.7075  1.70475762 27585
GSAT0224 (GALILEO 28)   
1 49810U 21116B   26134.08629532 -.00000059  00000+0  00000+0 0  9997
2 49810  57.1734 342.5955 0000346 113.4739  70.4838  1.70475706 27629
GSAT0225 (GALILEO 29)   
1 59598U 24079A   26133.50947432  .00000053  00000+0  00000+0 0  9993
2 59598  55.0983 102.0485 0002416 282.1756 260.9730  1.70474205 12721
GSAT0227 (GALILEO 30)   
1 59600U 24079C   26132.22126720  .00000057  00000+0  00000+0 0  9998
2 59600  55.0936 102.0828 0001530  23.5037 336.4810  1.70474232 12750
GSAT0232 (GALILEO 32)   
1 61182U 24167A   26133.63130446  .00000012  00000+0  00000+0 0  9991
2 61182  55.1949 222.2621 0005340 217.4341 143.4556  1.70474390 10299
GSAT0226 (GALILEO 31)   
1 61183U 24167B   26133.59057392  .00000012  00000+0  00000+0 0  9995
2 61183  55.1937 222.2705 0002228 207.8161 219.4163  1.70474355 10261
